[Satellite]
VERSION=1.1
NAME=IRIDIUM 38 [-]
NICKNAME=IRIDIUM 38 [-]
TLE1=1 25043U 97069E   15055.41805528  .00000412  00000-0  13588-3 0  9999
TLE2=2 25043  86.3995  12.7579 0002910 122.3117 358.1118 14.35732611905651
